{
  "type": "FeatureCollection",
  "features": [
    {
      "type": "Feature",
      "properties": {
        "norad_id": 34389,
        "name": "COSMOS 2251 DEB",
        "group": "cosmos-2251-debris",
        "lat": -35.57562839190829,
        "lon": -125.80903391107147,
        "alt_km": 742.3373660466314,
        "timestamp": "2025-12-14T18:52:55.897540+00:00",
        "meta_object_name": "COSMOS 2251 DEB",
        "meta_object_id": "1993-036QE",
        "meta_epoch": "2025-12-13T20:02:48.975648",
        "meta_mean_motion": 14.41537558,
        "meta_eccentricity": 0.00289721,
        "meta_inclination": 74.0193,
        "meta_ra_of_asc_node": 247.7827,
        "meta_arg_of_pericenter": 359.5812,
        "meta_mean_anomaly": 67.7686,
        "meta_ephemeris_type": 0,
        "meta_classification_type": "U",
        "meta_norad_cat_id": 34389,
        "meta_element_set_no": 999,
        "meta_rev_at_epoch": 88028,
        "meta_bstar": 0.00051522231,
        "meta_mean_motion_dot": 1.656e-05,
        "meta_mean_motion_ddot": 0,
        "tle_line1": "1 34389U 93036QE  25347.83528907  .00001656  00000+0  51522-3 0  9996",
        "tle_line2": "2 34389  74.0193 247.7827 0028972 359.5812  67.7686 14.41537558880280"
      },
      "geometry": {
        "type": "Point",
        "coordinates": [
          -125.80903391107147,
          -35.57562839190829
        ]
      }
    },
    {
      "type": "Feature",
      "properties": {
        "norad_id": 34396,
        "name": "COSMOS 2251 DEB",
        "group": "cosmos-2251-debris",
        "lat": 47.699346637584085,
        "lon": -78.31244129818572,
        "alt_km": 638.5846770700336,
        "timestamp": "2025-12-14T18:52:55.897551+00:00",
        "meta_object_name": "COSMOS 2251 DEB",
        "meta_object_id": "1993-036QM",
        "meta_epoch": "2025-12-13T20:13:31.915200",
        "meta_mean_motion": 14.74465056,
        "meta_eccentricity": 0.00058766,
        "meta_inclination": 74.0279,
        "meta_ra_of_asc_node": 121.8769,
        "meta_arg_of_pericenter": 161.4722,
        "meta_mean_anomaly": 359.2641,
        "meta_ephemeris_type": 0,
        "meta_classification_type": "U",
        "meta_norad_cat_id": 34396,
        "meta_element_set_no": 999,
        "meta_rev_at_epoch": 88362,
        "meta_bstar": 0.0023105413,
        "meta_mean_motion_dot": 0.00015361,
        "meta_mean_motion_ddot": 0,
        "tle_line1": "1 34396U 93036QM  25347.84273050  .00015361  00000+0  23105-2 0  9994",
        "tle_line2": "2 34396  74.0279 121.8769 0005876 161.4722 359.2641 14.74465056883628"
      },
      "geometry": {
        "type": "Point",
        "coordinates": [
          -78.31244129818572,
          47.699346637584085
        ]
      }
    },
    {
      "type": "Feature",
      "properties": {
        "norad_id": 34400,
        "name": "COSMOS 2251 DEB",
        "group": "cosmos-2251-debris",
        "lat": -19.522437374137123,
        "lon": 12.97116833332316,
        "alt_km": 406.9493470618045,
        "timestamp": "2025-12-14T18:52:55.897561+00:00",
        "meta_object_name": "COSMOS 2251 DEB",
        "meta_object_id": "1993-036QR",
        "meta_epoch": "2025-12-13T12:04:28.929504",
        "meta_mean_motion": 15.53948081,
        "meta_eccentricity": 0.00048407,
        "meta_inclination": 73.9656,
        "meta_ra_of_asc_node": 21.6693,
        "meta_arg_of_pericenter": 266.6732,
        "meta_mean_anomaly": 93.3929,
        "meta_ephemeris_type": 0,
        "meta_classification_type": "U",
        "meta_norad_cat_id": 34400,
        "meta_element_set_no": 999,
        "meta_rev_at_epoch": 89986,
        "meta_bstar": 0.0047860933,
        "meta_mean_motion_dot": 0.00322026,
        "meta_mean_motion_ddot": 0,
        "tle_line1": "1 34400U 93036QR  25347.50311261  .00322026  00000+0  47861-2 0  9994",
        "tle_line2": "2 34400  73.9656  21.6693 0004840 266.6732  93.3929 15.53948081899863"
      },
      "geometry": {
        "type": "Point",
        "coordinates": [
          12.97116833332316,
          -19.522437374137123
        ]
      }
    },
    {
      "type": "Feature",
      "properties": {
        "norad_id": 34409,
        "name": "COSMOS 2251 DEB",
        "group": "cosmos-2251-debris",
        "lat": -70.50639517672026,
        "lon": 176.7696429050777,
        "alt_km": 732.7474830511246,
        "timestamp": "2025-12-14T18:52:55.897571+00:00",
        "meta_object_name": "COSMOS 2251 DEB",
        "meta_object_id": "1993-036RA",
        "meta_epoch": "2025-12-13T14:14:46.154400",
        "meta_mean_motion": 14.58030262,
        "meta_eccentricity": 0.00798857,
        "meta_inclination": 74.0639,
        "meta_ra_of_asc_node": 305.2158,
        "meta_arg_of_pericenter": 19.2932,
        "meta_mean_anomaly": 99.8645,
        "meta_ephemeris_type": 0,
        "meta_classification_type": "U",
        "meta_norad_cat_id": 34409,
        "meta_element_set_no": 999,
        "meta_rev_at_epoch": 89205,
        "meta_bstar": 0.0003814021,
        "meta_mean_motion_dot": 1.801e-05,
        "meta_mean_motion_ddot": 0,
        "tle_line1": "1 34409U 93036RA  25347.59358975  .00001801  00000+0  38140-3 0  9991",
        "tle_line2": "2 34409  74.0639 305.2158 0079885  19.2932  99.8645 14.58030262892054"
      },
      "geometry": {
        "type": "Point",
        "coordinates": [
          176.7696429050777,
          -70.50639517672026
        ]
      }
    },
    {
      "type": "Feature",
      "properties": {
        "norad_id": 34410,
        "name": "COSMOS 2251 DEB",
        "group": "cosmos-2251-debris",
        "lat": 25.79886611761599,
        "lon": -94.50828397048052,
        "alt_km": 502.3372067535347,
        "timestamp": "2025-12-14T18:52:55.897581+00:00",
        "meta_object_name": "COSMOS 2251 DEB",
        "meta_object_id": "1993-036RB",
        "meta_epoch": "2025-12-13T20:56:49.248672",
        "meta_mean_motion": 15.19086102,
        "meta_eccentricity": 0.00216895,
        "meta_inclination": 73.7357,
        "meta_ra_of_asc_node": 259.3261,
        "meta_arg_of_pericenter": 100.4612,
        "meta_mean_anomaly": 330.5898,
        "meta_ephemeris_type": 0,
        "meta_classification_type": "U",
        "meta_norad_cat_id": 34410,
        "meta_element_set_no": 999,
        "meta_rev_at_epoch": 89791,
        "meta_bstar": 0.0023676023,
        "meta_mean_motion_dot": 0.00050296,
        "meta_mean_motion_ddot": 0,
        "tle_line1": "1 34410U 93036RB  25347.87279223  .00050296  00000+0  23676-2 0  9991",
        "tle_line2": "2 34410  73.7357 259.3261 0021689 100.4612 330.5898 15.19086102897917"
      },
      "geometry": {
        "type": "Point",
        "coordinates": [
          -94.50828397048052,
          25.79886611761599
        ]
      }
    },
    {
      "type": "Feature",
      "properties": {
        "norad_id": 34412,
        "name": "COSMOS 2251 DEB",
        "group": "cosmos-2251-debris",
        "lat": 26.830114160635144,
        "lon": -30.86577220739363,
        "alt_km": 614.6190688610568,
        "timestamp": "2025-12-14T18:52:55.897603+00:00",
        "meta_object_name": "COSMOS 2251 DEB",
        "meta_object_id": "1993-036RD",
        "meta_epoch": "2025-12-13T22:50:52.168416",
        "meta_mean_motion": 14.4715289,
        "meta_eccentricity": 0.01872268,
        "meta_inclination": 73.9481,
        "meta_ra_of_asc_node": 322.3299,
        "meta_arg_of_pericenter": 57.1154,
        "meta_mean_anomaly": 304.7865,
        "meta_ephemeris_type": 0,
        "meta_classification_type": "U",
        "meta_norad_cat_id": 34412,
        "meta_element_set_no": 999,
        "meta_rev_at_epoch": 87668,
        "meta_bstar": 0.0015273996,
        "meta_mean_motion_dot": 6.921e-05,
        "meta_mean_motion_ddot": 0,
        "tle_line1": "1 34412U 93036RD  25347.95199269  .00006921  00000+0  15274-2 0  9994",
        "tle_line2": "2 34412  73.9481 322.3299 0187226  57.1154 304.7865 14.47152890876686"
      },
      "geometry": {
        "type": "Point",
        "coordinates": [
          -30.86577220739363,
          26.830114160635144
        ]
      }
    },
    {
      "type": "Feature",
      "properties": {
        "norad_id": 34413,
        "name": "COSMOS 2251 DEB",
        "group": "cosmos-2251-debris",
        "lat": 27.564408721154408,
        "lon": -90.24299824026232,
        "alt_km": 752.449233857893,
        "timestamp": "2025-12-14T18:52:55.897615+00:00",
        "meta_object_name": "COSMOS 2251 DEB",
        "meta_object_id": "1993-036RE",
        "meta_epoch": "2025-12-14T00:20:29.298336",
        "meta_mean_motion": 14.29112809,
        "meta_eccentricity": 0.00908756,
        "meta_inclination": 74.0309,
        "meta_ra_of_asc_node": 262.5632,
        "meta_arg_of_pericenter": 338.6923,
        "meta_mean_anomaly": 36.4226,
        "meta_ephemeris_type": 0,
        "meta_classification_type": "U",
        "meta_norad_cat_id": 34413,
        "meta_element_set_no": 999,
        "meta_rev_at_epoch": 87149,
        "meta_bstar": 0.0017871907,
        "meta_mean_motion_dot": 4.714e-05,
        "meta_mean_motion_ddot": 0,
        "tle_line1": "1 34413U 93036RE  25348.01422799  .00004714  00000+0  17872-2 0  9994",
        "tle_line2": "2 34413  74.0309 262.5632 0090875 338.6923  36.4226 14.29112809871498"
      },
      "geometry": {
        "type": "Point",
        "coordinates": [
          -90.24299824026232,
          27.564408721154408
        ]
      }
    }
  ]
}